ONEWEB-0414             
1 50491U 21132Y   26021.42527509  .00000098  00000+0  21529-3 0  9991
2 50491  87.9194   4.5711 0001930  79.7343 280.4007 13.18686300202284
ONEWEB-0417             
1 50492U 21132Z   26021.43351635  .00000085  00000+0  18407-3 0  9995
2 50492  87.9184   4.6012 0002007  88.0441 272.0921 13.18687151202262
ONEWEB-0418             
1 50493U 21132AA  26021.44328476  .00000084  00000+0  17980-3 0  9998
2 50493  87.9194   4.5850 0002226  92.0651 268.0736 13.18686942202327
ONEWEB-0419             
1 50494U 21132AB  26021.46156426  .00000068  00000+0  14065-3 0  9998
2 50494  87.9193   4.5813 0001907  95.1129 265.0221 13.18686009202246
ONEWEB-0420             
1 50495U 21132AC  26021.50280249  .00000141  00000+0  32601-3 0  9993
2 50495  87.9196   4.5857 0001644  82.8377 277.2942 13.18686790202246
ONEWEB-0421             
1 50496U 21132AD  26021.49620752  .00000138  00000+0  31654-3 0  9992
2 50496  87.9194   4.5794 0001982  77.2345 282.9008 13.18686988202282
ONEWEB-0424             
1 50497U 21132AE  26021.45661563  .00000094  00000+0  20646-3 0  9994
2 50497  87.9193   4.5822 0001761  97.7075 262.4257 13.18686380202304
ONEWEB-0426             
1 50498U 21132AF  26021.49290683  .00000051  00000+0  96235-4 0  9991
2 50498  87.9195   4.5672 0002459  78.2208 281.9200 13.18685931202256
